[
    {
        "Altitude(m)": 611965.1724349564,
        "Argument of Periapsis(deg)": 0.0,
        "Eccentricity": 0.0,
        "Inclination(deg)": 60.0,
        "Latitude(deg)": 59.14012239740141,
        "Longitude(deg)": -116.03010184649354,
        "Mean Anomaly(deg)": 81.8182,
        "RAAN(deg)": 270.0,
        "Satellite Name": "Test1 1193",
        "Satellite Number": 1193,
        "Semi-Major Axis(m)": 6980739.136638005,
        "Time(s)": 0
    },
    {
        "Altitude(m)": 611995.7976641991,
        "Argument of Periapsis(deg)": 0.00010418945913296404,
        "Eccentricity": 0.0,
        "Inclination(deg)": 60.0,
        "Latitude(deg)": 59.28322144023999,
        "Longitude(deg)": -114.8967405258736,
        "Mean Anomaly(deg)": 82.43830614546187,
        "RAAN(deg)": 269.99957995086027,
        "Satellite Name": "Test1 1193",
        "Satellite Number": 1193,
        "Semi-Major Axis(m)": 6980739.136638005,
        "Time(s)": 10
    }
]